UBAKUSAT                
1 43467U 98067NQ  19107.87137183  .00012861  00000-0  15357-3 0  9992
2 43467  51.6367 290.1981 0002682 191.3856 168.7078 15.61413883 53213
BATSU-CS1 (IRAZU)       
1 43468U 98067NR  19107.87259308  .00025765  00000-0  25175-3 0  9993
2 43468  51.6364 285.7008 0001219 232.7472 127.3413 15.65990958153256
CUBERRT                 
1 43546U 98067NU  19107.89288273  .00026729  00000-0  30067-3 0  9992
2 43546  51.6374 291.8368 0005276 257.3293 102.7112 15.62372099 43328
TEMPEST-D               
1 43547U 98067NV  19107.94189056  .00004087  00000-0  61801-4 0  9992
2 43547  51.6379 295.9096 0005264 249.1577 110.8852 15.57206475 42955
RAINCUBE                
1 43548U 98067NW  19107.87397139  .00012659  00000-0  15964-3 0  9990
2 43548  51.6367 293.9514 0005447 258.3138 101.7244 15.59982778 43420
HALOSAT                 
1 43549U 98067NX  19107.93963343  .00012733  00000-0  16076-3 0  9992
2 43549  51.6371 293.6453 0005245 262.8453  97.1944 15.59946913 42998
ENDUROSAT ONE           
1 43551U 98067NZ  19107.88722089  .00014843  00000-0  17803-3 0  9992
2 43551  51.6375 292.5500 0005725 268.7040  91.3298 15.61142994 43412
EQUISAT                 
1 43552U 98067PA  19107.88937321  .00012179  00000-0  15234-3 0  9996
2 43552  51.6386 293.3249 0005975 268.8309  91.2000 15.60240801 43369
AEROCUBE 12A            
1 43556U 18046C   19107.93680066  .00001490  00000-0  65551-4 0  9998
2 43556  51.6439 352.8421 0008095 205.6087 154.4493 15.28521904 42113
AEROCUBE 12B            
1 43557U 18046D   19107.88017660  .00001754  00000-0  75140-4 0  9995
2 43557  51.6440 353.2115 0008209 205.4927 154.5649 15.28415509 42059
UITMSAT-1               
1 43589U 98067PD  19107.89344342  .00013484  00000-0  16836-3 0  9991
2 43589  51.6359 294.0706 0005258 276.0714  83.9680 15.60180812 39092
MAYA-1                  
1 43590U 98067PE  19107.88934833  .00013310  00000-0  16614-3 0  9994
2 43590  51.6364 294.0446 0005379 277.7868  82.2515 15.60202266 39023
BHUTAN-1                
1 43591U 98067PF  19107.94622998  .00013473  00000-0  16774-3 0  9995
2 43591  51.6376 293.6872 0005471 278.7719  81.2654 15.60256606 39035
SIRIUSSAT-1             
1 43595U 98067PG  19107.90313406  .00013051  00000-0  16702-3 0  9999
2 43595  51.6360 294.8860 0003609 229.6705 130.3973 15.59565787 38190
SIRIUSSAT-2             
1 43596U 98067PH  19107.92708630  .00013492  00000-0  17350-3 0  9998
2 43596  51.6372 295.0719 0004189 231.2863 128.7756 15.59402353 38197
TANUSHA-3               
1 43597U 98067PJ  19107.91325472  .00017211  00000-0  21025-3 0  9994
2 43597  51.6359 294.1826 0003680 244.9961 115.0650 15.60538186 38207
SURFSAT                 
1 43614U 18070B   19107.89158682  .00002373  00000-0  65056-4 0  9990
2 43614  93.0299 338.1770 0016212 174.4277 185.7159 15.37246275 32918
CP7 (DAVE)              
1 43615U 18070C   19107.89451883  .00002232  00000-0  61327-4 0  9991
2 43615  93.0303 338.1803 0016334 174.1744 185.9702 15.37187764 32916
ELFIN-B                 
1 43616U 18070D   19107.85950315  .00003445  00000-0  93012-4 0  9995
2 43616  93.0266 338.0890 0016961 178.2943 181.8372 15.37676962 32913
ELFIN-A                 
1 43617U 18070E   19107.85479163  .00003445  00000-0  92950-4 0  9993
2 43617  93.0323 338.2541 0016227 174.7457 185.3970 15.37709732 32914
CUBEBEL-1 (BSUSAT-1)    
1 43666U 18083E   19107.96678009  .00001275  00000-0  66966-4 0  9990
2 43666  97.5258 132.8550 0016562  47.9650  39.3041 15.17444369 25920
DEBRISSAT-2             
1 43680U 98067PR  19107.91580695  .00022372  00000-0  26857-3 0  9999
2 43680  51.6389 294.2258 0003072 258.7435 101.3213 15.60801772 46944
CICERO 10               
1 43690U 18088A   19107.92464643  .00001107  00000-0  50032-4 0  9996
2 43690  85.0408 359.1743 0017553  76.1381 284.1811 15.19539518 23971
IRVINE01                
1 43693U 18088D   19107.91379263  .00002739  00000-0  12071-3 0  9993
2 43693  85.0387 358.9121 0020853  63.1290 297.2080 15.21116436 23975
PROXIMA I               
1 43694U 18088E   19107.87521031  .00001057  00000-0  45204-4 0  9998
2 43694  85.0351 358.8044 0021528  55.3871 304.9397 15.21274358 23984
PROXIMA II              
1 43696U 18088G   19107.87458273  .00001062  00000-0  45410-4 0  9992
2 43696  85.0352 358.8055 0021558  55.3418 304.9851 15.21279948 23973
FACSAT-1                
1 43721U 18096C   19107.90804687  .00001725  00000-0  69527-4 0  9999
2 43721  97.4643 177.8660 0018137 182.5936 177.5211 15.26091153 21315
CENTAURI-2              
1 43722U 18096D   19107.89668662  .00002055  00000-0  81833-4 0  9990
2 43722  97.4642 177.8801 0018315 183.3949 176.7168 15.26273509 21301
INNOSAT-2               
1 43738U 18096V   19107.91274124  .00002819  00000-0  10412-3 0  9998
2 43738  97.4644 178.3168 0024448 196.7790 163.2643 15.28333665 21343
SIRION PATHFINDER-2     
1 43759U 18099B   19107.94619148  .00000616  00000-0  61378-4 0  9997
2 43759  97.7489 180.6748 0014924 161.0341 199.1438 14.95098466 20205
CORVUS-BC 4             
1 43767U 18099K   19107.92930190  .00000174  00000-0  21407-4 0  9995
2 43767  97.7475 180.5169 0012312 163.1279 197.0353 14.94541397 20193
SHIELDS 1               
1 43850U 18104B   19107.47694430  .00000041  00000-0  00000-0 0  9994
2 43850  85.0241  97.5715 0014063 190.9687 169.1270 15.21021918 18566
STF-1                   
1 43852U 18104D   19107.46135457  .00000041  00000-0  00000-0 0  9994
2 43852  85.0307  97.7334 0014052 203.5646 156.4995 15.20469775 18552
LUME 1                  
1 43908U 18111AJ  19107.96015692  .00000978  00000-0  42801-4 0  9995
2 43908  97.2944  14.8836 0020860 205.2978 154.7240 15.24197929 17044
AOBA VELOX-IV           
1 43940U 19003J   19107.94883825  .00001997  00000-0  85900-4 0  9990
2 43940  97.2841 167.6785 0022942 292.2883 153.1106 15.23569256 13685
CATSAT-2                
1 44029U 98067PV  19107.75759541  .00010070  00000-0  15263-3 0  9998
2 44029  51.6388 300.6822 0004507 273.3467  86.7009 15.55286425 11938
DELPHINI                
1 44030U 98067PW  19107.75599761  .00009632  00000-0  14603-3 0  9995
2 44030  51.6381 300.6684 0004275 270.3543  89.6959 15.55339268 11900
UNITE                   
1 44031U 98067PX  19107.82928025  .00006195  00000-0  98093-4 0  9990
2 44031  51.6386 300.4078 0002877 267.2413  92.8249 15.54874859 11916
TECHEDSAT 8             
1 44032U 98067PY  19107.78224730  .00019749  00000-0  27466-3 0  9992
2 44032  51.6378 300.0952 0003542 260.4224  99.6367 15.56972671 11896
CATSAT-1                
1 44033U 98067PZ  19107.69323009  .00008555  00000-0  13078-3 0  9999
2 44033  51.6388 301.0024 0004321 273.0468  87.0029 15.55280642 11834
